NORAD_CAT_ID,OBJECT_NAME,OBJECT_TYPE,EPOCH,MEAN_MOTION,ECCENTRICITY,INCLINATION,RA_OF_ASC_NODE,ARG_OF_PERICENTER,MEAN_ANOMALY,BSTAR,MEAN_MOTION_DOT,MEAN_MOTION_DDOT,TLE_LINE0,TLE_LINE1,TLE_LINE2,SEMIMAJOR_AXIS,PERIOD,APOGEE,PERIGEE,DECAYED
56797.0,STARLINK-6058,PAYLOAD,2023-06-06 16:00:03,15.91181878,0.0028054,70.0036,35.8065,161.7392,104.6883,-0.0031844,-0.01050155,0.00032813,0 STARLINK-6058,1 56797U 23078AG  23157.66670139 -.01050155  32813-3 -31844-2 0  9991,2 56797  70.0036  35.8065 0028054 161.7392 104.6883 15.91181878  1300,6677.111,90.499,317.708,280.244,0.0
56797.0,STARLINK-6058,PAYLOAD,2023-06-06 22:00:00,15.90637315,0.0025432,70.0035,35.0817,161.9919,95.6965,-0.0030256,-0.00964438,0.00027881,0 STARLINK-6058,1 56797U 23078AG  23157.91667824 -.00964438  27881-3 -30256-2 0  9998,2 56797  70.0035  35.0817 0025432 161.9919  95.6965 15.90637315  1301,6678.635,90.53,317.485,283.515,0.0
56797.0,STARLINK-6058,PAYLOAD,2023-06-07 07:29:18,15.90116433,0.0023048,70.0034,33.9364,158.7677,201.4491,-0.00026323,-0.0008267,6.143e-06,0 STARLINK-6058,1 56797U 23078AG  23158.31201996 -.00082670  61430-5 -26323-3 0  9997,2 56797  70.0034  33.9364 0023048 158.7677 201.4491 15.90116433  1146,6680.094,90.559,317.355,286.562,0.0
56797.0,STARLINK-6058,PAYLOAD,2023-06-07 12:00:00,15.89508446,0.0020348,70.0028,33.392,164.2248,191.599,-0.0032496,-0.00967595,0.00027741,0 STARLINK-6058,1 56797U 23078AG  23158.50001157 -.00967595  27741-3 -32496-2 0  9995,2 56797  70.0028  33.3920 0020348 164.2248 191.5990 15.89508446  1439,6681.797,90.594,317.258,290.066,0.0
56797.0,STARLINK-6058,PAYLOAD,2023-06-07 20:00:01,15.88854051,0.0017117,70.0027,32.4279,165.3089,296.9638,-0.0034453,-0.00987181,0.00028607,0 STARLINK-6058,1 56797U 23078AG  23158.83334491 -.00987181  28607-3 -34453-2 0  9991,2 56797  70.0027  32.4279 0017117 165.3089 296.9638 15.88854051  1489,6683.632,90.631,316.937,294.056,0.0
56797.0,STARLINK-6058,PAYLOAD,2023-06-07 22:00:00,15.88668179,0.0016423,70.0025,32.187,165.4661,53.2994,-0.0033074,-0.00938273,0.00025991,0 STARLINK-6058,1 56797U 23078AG  23158.91667824 -.00938273  25991-3 -33074-2 0  9998,2 56797  70.0025  32.1870 0016423 165.4661  53.2994 15.88668179  1301,6684.153,90.642,316.995,295.041,0.0
56797.0,STARLINK-6058,PAYLOAD,2023-06-08 06:00:00,15.88082944,0.0013396,70.0021,31.2237,168.7764,155.4235,-0.0039127,-0.01072875,0.00033125,0 STARLINK-6058,1 56797U 23078AG  23159.25001157 -.01072875  33125-3 -39127-2 0  9998,2 56797  70.0021  31.2237 0013396 168.7764 155.4235 15.88082944  1550,6685.795,90.675,316.616,298.704,0.0
56797.0,STARLINK-6058,PAYLOAD,2023-06-08 12:00:00,15.87554416,0.0011565,70.002,30.502,172.3792,140.4094,-0.0036514,-0.00974214,0.00027569,0 STARLINK-6058,1 56797U 23078AG  23159.50001157 -.00974214  27569-3 -36514-2 0  9995,2 56797  70.0020  30.5020 0011565 172.3792 140.4094 15.87554416  1597,6687.279,90.706,316.878,301.41,0.0
56797.0,STARLINK-6058,PAYLOAD,2023-06-08 12:11:58,15.87758796,0.0011531,70.0025,30.4781,171.3364,188.8042,-0.00042947,-0.00117199,8.2844e-06,0 STARLINK-6058,1 56797U 23078AG  23159.50831525 -.00117199  82844-5 -42947-3 0  9993,2 56797  70.0025  30.4781 0011531 171.3364 188.8042 15.87758796  1330,6686.705,90.694,316.28,300.859,0.0
56797.0,STARLINK-6058,PAYLOAD,2023-06-08 20:00:01,15.86909858,0.0008531,70.0023,29.5404,178.391,238.5614,-0.0039295,-0.00919122,0.0,0 STARLINK-6058,1 56797U 23078AG  23159.83335648 -.00919122  00000-0 -39295-2 0  9990,2 56797  70.0023  29.5404 0008531 178.3910 238.5614 15.86909858  1647,6689.089,90.742,316.661,305.248,0.0
56797.0,STARLINK-6058,PAYLOAD,2023-06-08 22:00:00,15.86705984,0.0007794,70.0022,29.3003,179.3838,353.4147,-0.0036246,-0.00845572,0.0,0 STARLINK-6058,1 56797U 23078AG  23159.91667824 -.00845572  00000-0 -36246-2 0  9993,2 56797  70.0022  29.3003 0007794 179.3838 353.4147 15.86705984  1304,6689.662,90.754,316.741,306.313,0.0
56797.0,STARLINK-6058,PAYLOAD,2023-06-09 06:00:00,15.86114706,0.0005344,70.0022,28.3397,195.6298,80.2601,-0.0042495,-0.00949675,0.0,0 STARLINK-6058,1 56797U 23078AG  23160.25001157 -.00949675  00000-0 -42495-2 0  9995,2 56797  70.0022  28.3397 0005344 195.6298  80.2601 15.86114706  1710,6691.325,90.788,316.766,309.614,0.0
56797.0,STARLINK-6058,PAYLOAD,2023-06-09 14:00:01,15.85472873,0.0004047,70.0027,27.3806,224.5457,153.6647,-0.0043657,-0.00945136,0.0,0 STARLINK-6058,1 56797U 23078AG  23160.58334491 -.00945136  00000-0 -43657-2 0  9990,2 56797  70.0027  27.3806 0004047 224.5457 153.6647 15.85472873  1768,6693.131,90.825,317.704,312.287,0.0
56797.0,STARLINK-6058,PAYLOAD,2023-06-09 20:00:01,15.84949728,0.0003875,70.0031,26.6616,251.397,113.0684,-0.0042961,-0.00910326,0.0,0 STARLINK-6058,1 56797U 23078AG  23160.83334491 -.00910326  00000-0 -42961-2 0  9998,2 56797  70.0031  26.6616 0003875 251.3970 113.0684 15.84949728  1803,6694.603,90.855,319.062,313.874,0.0
56797.0,STARLINK-6058,PAYLOAD,2023-06-09 22:00:00,15.84765545,0.0003766,70.003,26.4223,259.1177,220.666,-0.0041335,-0.00871891,0.0,0 STARLINK-6058,1 56797U 23078AG  23160.91667824 -.00871891  00000-0 -41335-2 0  9993,2 56797  70.0030  26.4223 0003766 259.1177 220.6660 15.84765545  1305,6695.122,90.865,319.508,314.466,0.0
56797.0,STARLINK-6058,PAYLOAD,2023-06-10 04:00:01,15.84321803,0.0003953,70.0027,25.7038,269.3671,196.1142,-0.0046205,-0.00946056,0.0,0 STARLINK-6058,1 56797U 23078AG  23161.16668981 -.00946056  00000-0 -46205-2 0  9993,2 56797  70.0027  25.7038 0003953 269.3671 196.1142 15.84321803  1854,6696.372,90.891,320.884,315.59,0.0
56797.0,STARLINK-6058,PAYLOAD,2023-06-10 12:00:02,15.83636793,0.0003743,70.0026,24.7473,262.7735,302.8932,-0.0043705,-0.00873227,0.0,0 STARLINK-6058,1 56797U 23078AG  23161.50002315 -.00873227  00000-0 -43705-2 0  9995,2 56797  70.0026  24.7473 0003743 262.7735 302.8932 15.83636793  1905,6698.303,90.93,322.675,317.661,0.0
56797.0,STARLINK-6058,PAYLOAD,2023-06-10 14:00:01,15.83509281,0.0003856,70.0028,24.5084,263.6127,56.8998,-0.004716,-0.00930457,0.0,0 STARLINK-6058,1 56797U 23078AG  23161.58334491 -.00930457  00000-0 -47160-2 0  9994,2 56797  70.0028  24.5084 0003856 263.6127  56.8998 15.83509281  1306,6698.663,90.937,323.111,317.945,0.0
56797.0,STARLINK-6058,PAYLOAD,2023-06-10 20:00:01,15.82989936,0.0003677,70.0027,23.7915,268.3616,36.6469,-0.0047086,-0.00908582,0.0,0 STARLINK-6058,1 56797U 23078AG  23161.83334491 -.00908582  00000-0 -47086-2 0  9993,2 56797  70.0027  23.7915 0003677 268.3616  36.6469 15.82989936  1964,6700.128,90.967,324.456,319.529,0.0
56797.0,STARLINK-6058,PAYLOAD,2023-06-10 22:00:00,15.82810438,0.0003686,70.0025,23.5529,272.5867,147.1507,-0.0045537,-0.00874697,0.0,0 STARLINK-6058,1 56797U 23078AG  23161.91667824 -.00874697  00000-0 -45537-2 0  9999,2 56797  70.0025  23.5529 0003686 272.5867 147.1507 15.82810438  1305,6700.634,90.977,324.969,320.029,0.0
56797.0,STARLINK-6058,PAYLOAD,2023-06-11 14:00:01,15.81550879,0.0003655,70.0024,21.6442,264.2268,351.5443,-0.0051602,-0.00928474,0.0,0 STARLINK-6058,1 56797U 23078AG  23162.58334491 -.00928474  00000-0 -51602-2 0  9997,2 56797  70.0024  21.6442 0003655 264.2268 351.5443 15.81550879  1305,6704.191,91.05,328.507,323.606,0.0
56797.0,STARLINK-6058,PAYLOAD,2023-06-11 20:00:01,15.81023421,0.0003688,70.0024,20.9294,268.7561,329.7521,-0.0050702,-0.00893812,0.0,0 STARLINK-6058,1 56797U 23078AG  23162.83334491 -.00893812  00000-0 -50702-2 0  9992,2 56797  70.0024  20.9294 0003688 268.7561 329.7521 15.81023421  2115,6705.682,91.08,330.02,325.074,0.0
56797.0,STARLINK-6058,PAYLOAD,2023-06-12 12:00:00,15.79719061,0.000364,70.0026,19.026,268.0585,162.1935,-0.0052157,-0.00868397,0.0,0 STARLINK-6058,1 56797U 23078AG  23163.50001157 -.00868397  00000-0 -52157-2 0  9993,2 56797  70.0026  19.0260 0003640 268.0585 162.1935 15.79719061  2225,6709.373,91.155,333.68,328.796,0.0
56797.0,STARLINK-6058,PAYLOAD,2023-06-12 20:00:01,15.79057058,0.0003468,70.0029,18.0758,270.2243,254.7429,-0.0054273,-0.00875894,0.0,0 STARLINK-6058,1 56797U 23078AG  23163.83334491 -.00875894  00000-0 -54273-2 0  9990,2 56797  70.0029  18.0758 0003468 270.2243 254.7429 15.79057058  2275,6711.248,91.194,335.441,330.786,0.0
56797.0,STARLINK-6058,PAYLOAD,2023-06-12 22:00:00,15.78886647,0.0003504,70.0029,17.8384,270.4074,8.1112,-0.0053136,-0.00853218,0.0,0 STARLINK-6058,1 56797U 23078AG  23163.91667824 -.00853218  00000-0 -53136-2 0  9991,2 56797  70.0029  17.8384 0003504 270.4074   8.1112 15.78886647  1308,6711.731,91.204,335.948,331.244,0.0
56797.0,STARLINK-6058,PAYLOAD,2023-06-13 12:00:00,15.77774621,0.0003525,70.0023,16.178,267.0569,84.9519,-0.0058302,-0.00886831,0.0,0 STARLINK-6058,1 56797U 23078AG  23164.50001157 -.00886831  00000-0 -58302-2 0  9995,2 56797  70.0023  16.1780 0003525 267.0569  84.9519 15.77774621  2387,6714.884,91.268,339.116,334.382,0.0
56797.0,STARLINK-6058,PAYLOAD,2023-06-13 14:00:01,15.77643554,0.000339,70.0025,15.941,268.5481,196.6141,-0.0062548,-0.00939811,0.0,0 STARLINK-6058,1 56797U 23078AG  23164.58334491 -.00939811  00000-0 -62548-2 0  9997,2 56797  70.0025  15.9410 0003390 268.5481 196.6141 15.77643554  1308,6715.256,91.275,339.398,334.845,0.0
56797.0,STARLINK-6058,PAYLOAD,2023-06-13 18:00:00,15.77294764,0.0003559,70.0023,15.4672,269.9534,61.4037,-0.0062494,-0.00926057,0.0,0 STARLINK-6058,1 56797U 23078AG  23164.75001157 -.00926057  00000-0 -62494-2 0  9994,2 56797  70.0023  15.4672 0003559 269.9534  61.4037 15.77294764  2424,6716.246,91.296,340.501,335.721,0.0
56797.0,STARLINK-6058,PAYLOAD,2023-06-13 22:00:00,15.76932862,0.0003277,70.002,14.9936,274.0306,283.3159,-0.0058273,-0.00856592,0.0,0 STARLINK-6058,1 56797U 23078AG  23164.91667824 -.00856592  00000-0 -58273-2 0  9997,2 56797  70.0020  14.9936 0003277 274.0306 283.3159 15.76932862  1302,6717.274,91.317,341.34,336.937,0.0
